{
    "links": {
        "self": "http://www.neowsapp.com/rest/v1/neo/3836702?api_key=iIulBulltgU6a56xZRHN4H3l9WmuAYTsLGpBGhQ2"
    },
    "id": "3836702",
    "neo_reference_id": "3836702",
    "name": "(2018 WX2)",
    "designation": "2018 WX2",
    "nasa_jpl_url": "http://ssd.jpl.nasa.gov/sbdb.cgi?sstr=3836702",
    "absolute_magnitude_h": 25.4,
    "estimated_diameter": {
        "kilometers": {
            "estimated_diameter_min": 0.022108281,
            "estimated_diameter_max": 0.0494356193
        },
        "meters": {
            "estimated_diameter_min": 22.1082810359,
            "estimated_diameter_max": 49.435619262
        },
        "miles": {
            "estimated_diameter_min": 0.0137374447,
            "estimated_diameter_max": 0.0307178602
        },
        "feet": {
            "estimated_diameter_min": 72.5337327539,
            "estimated_diameter_max": 162.1903570994
        }
    },
    "is_potentially_hazardous_asteroid": false,
    "close_approach_data": [
        {
            "close_approach_date": "2018-12-19",
            "close_approach_date_full": "2018-Dec-19 01:32",
            "epoch_date_close_approach": 1545183120000,
            "relative_velocity": {
                "kilometers_per_second": "6.3803592317",
                "kilometers_per_hour": "22969.2932342272",
                "miles_per_hour": "14272.2255654563"
            },
            "miss_distance": {
                "astronomical": "0.053998325",
                "lunar": "21.005348425",
                "kilometers": "8078034.40356775",
                "miles": "5019457.82302495"
            },
            "orbiting_body": "Earth"
        },
        {
            "close_approach_date": "2147-12-26",
            "close_approach_date_full": "2147-Dec-26 04:08",
            "epoch_date_close_approach": 5616619680000,
            "relative_velocity": {
                "kilometers_per_second": "6.0255892858",
                "kilometers_per_hour": "21692.1214290517",
                "miles_per_hour": "13478.6406735127"
            },
            "miss_distance": {
                "astronomical": "0.0618767984",
                "lunar": "24.0700745776",
                "kilometers": "9256637.243059408",
                "miles": "5751807.6679715104"
            },
            "orbiting_body": "Earth"
        },
        {
            "close_approach_date": "2154-11-11",
            "close_approach_date_full": "2154-Nov-11 15:32",
            "epoch_date_close_approach": 5833697520000,
            "relative_velocity": {
                "kilometers_per_second": "20.3403764898",
                "kilometers_per_hour": "73225.3553633754",
                "miles_per_hour": "45499.3881700929"
            },
            "miss_distance": {
                "astronomical": "0.4935830874",
                "lunar": "192.0038209986",
                "kilometers": "73838978.543063838",
                "miles": "45881413.7172354444"
            },
            "orbiting_body": "Earth"
        },
        {
            "close_approach_date": "2171-02-21",
            "close_approach_date_full": "2171-Feb-21 18:06",
            "epoch_date_close_approach": 6347441160000,
            "relative_velocity": {
                "kilometers_per_second": "15.3307466788",
                "kilometers_per_hour": "55190.6880435842",
                "miles_per_hour": "34293.3472457482"
            },
            "miss_distance": {
                "astronomical": "0.3579658837",
                "lunar": "139.2487287593",
                "kilometers": "53550933.734187719",
                "miles": "33275007.2398357622"
            },
            "orbiting_body": "Earth"
        }
    ],
    "orbital_data": {
        "orbit_id": "6",
        "orbit_determination_date": "2018-12-30 07:03:05",
        "first_observation_date": "2018-11-29",
        "last_observation_date": "2018-12-13",
        "data_arc_in_days": 14,
        "observations_used": 36,
        "orbit_uncertainty": "7",
        "minimum_orbit_intersection": ".0543518",
        "jupiter_tisserand_invariant": "4.028",
        "epoch_osculation": "2459000.5",
        "eccentricity": ".4193514345932553",
        "semi_major_axis": "1.743914237861609",
        "inclination": "6.595007162989808",
        "ascending_node_longitude": "248.8255602955134",
        "orbital_period": "841.174525755313",
        "perihelion_distance": "1.01260130040674",
        "perihelion_argument": "214.3251931554032",
        "aphelion_distance": "2.475227175316478",
        "perihelion_time": "2459327.405898502868",
        "mean_anomaly": "220.0930961914721",
        "mean_motion": ".4279730174623945",
        "equinox": "J2000",
        "orbit_class": {
            "orbit_class_type": "APO",
            "orbit_class_description": "Near-Earth asteroid orbits which cross the Earth’s orbit similar to that of 1862 Apollo",
            "orbit_class_range": "a (semi-major axis) > 1.0 AU; q (perihelion) < 1.017 AU"
        }
    },
    "is_sentry_object": false
}